ONEWEB-0275             
1 48993U 21060AC  25365.65612918  .00000012  00000+0 -10462-5 0  9992
2 48993  87.9045 262.1333 0001618  71.1638 288.9668 13.16593379217510
ONEWEB-0276             
1 48994U 21060AD  25365.61337763  .00000059  00000+0  12147-3 0  9991
2 48994  87.9042 262.1418 0001360  70.4332 289.6945 13.16592811217526
ONEWEB-0277             
1 48995U 21060AE  25365.62604823  .00000129  00000+0  30442-3 0  9993
2 48995  87.9030 262.1615 0001586  72.9255 287.2049 13.16595040217519
ONEWEB-0278             
1 48996U 21060AF  25365.61655077  .00000609  00000+0  15606-2 0  9997
2 48996  87.9043 262.1380 0001258  82.0885 278.0388 13.16590052217646
ONEWEB-0279             
1 48997U 21060AG  25365.62446833  .00000144  00000+0  34340-3 0  9998
2 48997  87.9044 262.1342 0001774  63.5361 296.5951 13.16594863217579
ONEWEB-0280             
1 48998U 21060AH  25365.25950956  .00000008  00000+0 -12093-4 0  9996
2 48998  87.9043 262.2125 0001203  67.5030 292.6228 13.16596300217463
ONEWEB-0281             
1 48999U 21060AJ  25365.64505321  .00000100  00000+0  22823-3 0  9995
2 48999  87.9044 262.1310 0001664  75.4893 284.6423 13.16593521217589
ONEWEB-0282             
1 49000U 21060AK  25365.14314570 -.00000038  00000+0 -13193-3 0  9990
2 49000  87.9042 262.2418 0001494  69.0924 291.0366 13.16593195217491
